ONEWEB-0216             
1 48801U 21045AL  23311.41993330 -.00000023  00000+0 -95979-4 0  9994
2 48801  87.8970  88.8969 0001657  83.5863 276.5456 13.15544925119030
ONEWEB-0239             
1 48802U 21045AM  23311.42469852 -.00000066  00000+0 -20949-3 0  9994
2 48802  87.8979  88.8519 0000591  91.9662 268.1536 13.15551480119071
ONEWEB-0249             
1 48967U 21060A   23311.58219444 -.00003364  00000+0 -88342-2 0  9994
2 48967  87.9081  58.3627 0001747  93.0500 267.0831 13.16611162114265
ONEWEB-0250             
1 48968U 21060B   23311.58641401  .00000222  00000+0  54814-3 0  9993
2 48968  87.9081  58.3469 0001989 113.4498 246.6842 13.16597534114240
ONEWEB-0252             
1 48970U 21060D   23311.53788132 -.00000025  00000+0 -99154-4 0  9994
2 48970  87.9088  58.3650 0001777  96.3186 263.8147 13.16595137114303
ONEWEB-0253             
1 48971U 21060E   23311.60331289  .00000447  00000+0  11346-2 0  9991
2 48971  87.9011  58.3969 0001814 103.7840 256.3493 13.16593570114248
ONEWEB-0254             
1 48972U 21060F   23311.53574989 -.00000769  00000+0 -20445-2 0  9999
2 48972  87.9085  58.3548 0001505  91.6703 268.4600 13.16602609114230
ONEWEB-0255             
1 48973U 21060G   23311.57375834 -.00000069  00000+0 -21333-3 0  9993
2 48973  87.9081  58.3827 0001613 103.0241 257.1070 13.16597368114312
